NORAD_CAT_ID,OBJECT_NAME,OBJECT_TYPE,EPOCH,MEAN_MOTION,ECCENTRICITY,INCLINATION,RA_OF_ASC_NODE,ARG_OF_PERICENTER,MEAN_ANOMALY,BSTAR,MEAN_MOTION_DOT,MEAN_MOTION_DDOT,TLE_LINE0,TLE_LINE1,TLE_LINE2,SEMIMAJOR_AXIS,PERIOD,APOGEE,PERIGEE,DECAYED
52355.0,STARLINK-3877,PAYLOAD,2022-12-13 08:52:36,15.088469,0.0002269,53.2167,106.7674,47.44300000000001,312.6753,-1.1274e-05,-4.68e-06,0.0,0 STARLINK-3877,1 52355U 22045AA  22347.36987011 -.00000468  00000-0 -11274-4 0  9995,2 52355  53.2167 106.7674 0002269  47.4430 312.6753 15.08846900 37297,6917.859,95.437,541.294,538.155,0.0
52355.0,STARLINK-3877,PAYLOAD,2022-12-13 15:14:09,15.08839232,0.0002359,53.2157,105.5771,45.6542,314.4643,-1.2533e-05,-4.88e-06,0.0,0 STARLINK-3877,1 52355U 22045AA  22347.63483434 -.00000488  00000-0 -12533-4 0  9996,2 52355  53.2157 105.5771 0002359  45.6542 314.4643 15.08839232 37338,6917.8830000000025,95.438,541.38,538.116,0.0
52355.0,STARLINK-3877,PAYLOAD,2022-12-14 00:46:28,15.08833674,0.0002364,53.2156,103.7934,41.7165,318.4007,-3.7934e-05,-8.92e-06,0.0,0 STARLINK-3877,1 52355U 22045AA  22348.03227931 -.00000892  00000-0 -37934-4 0  9990,2 52355  53.2156 103.7934 0002364  41.7165 318.4007 15.08833674 37390,6917.9,95.438,541.4,538.129,0.0
52355.0,STARLINK-3877,PAYLOAD,2022-12-14 19:51:06,15.08837964,0.0002402,53.2163,100.2249,40.4187,319.6983,-3.16e-06,-3.39e-06,0.0,0 STARLINK-3877,1 52355U 22045AA  22348.82715815 -.00000339  00000-0 -31600-5 0  9991,2 52355  53.2163 100.2249 0002402  40.4187 319.6983 15.08837964 37518,6917.887,95.438,541.413,538.09,0.0
52355.0,STARLINK-3877,PAYLOAD,2022-12-15 08:34:11,15.08834703,0.0002221,53.2155,97.8463,39.4226,320.6927,1.5849e-06,-2.63e-06,0.0,0 STARLINK-3877,1 52355U 22045AA  22349.35708068 -.00000263  00000-0  15849-5 0  9994,2 52355  53.2155  97.8463 0002221  39.4226 320.6927 15.08834703 37595,6917.897,95.438,541.298,538.225,0.0
52355.0,STARLINK-3877,PAYLOAD,2022-12-15 13:20:20,15.08843068,0.0002274,53.2165,96.954,45.1405,314.9771,9.0535e-05,1.153e-05,0.0,0 STARLINK-3877,1 52355U 22045AA  22349.55579304  .00001153  00000-0  90535-4 0  9997,2 52355  53.2165  96.9540 0002274  45.1405 314.9771 15.08843068 37624,6917.871,95.437,541.309,538.163,0.0
52355.0,STARLINK-3877,PAYLOAD,2022-12-15 14:55:43,15.08847202,0.0002323,53.2165,96.6562,45.271,314.847,7.4917e-05,9.04e-06,0.0,0 STARLINK-3877,1 52355U 22045AA  22349.62203080  .00000904  00000-0  74917-4 0  9999,2 52355  53.2165  96.6562 0002323  45.2710 314.8470 15.08847202 37630,6917.858,95.437,541.33,538.116,0.0
52355.0,STARLINK-3877,PAYLOAD,2022-12-15 16:31:06,15.08846575,0.0002308,53.2165,96.3589,45.3706,314.7474,7.1819e-05,8.55e-06,0.0,0 STARLINK-3877,1 52355U 22045AA  22349.68827107  .00000855  00000-0  71819-4 0  9990,2 52355  53.2165  96.3589 0002308  45.3706 314.7474 15.08846575 37641,6917.86,95.437,541.322,538.129,0.0
52355.0,STARLINK-3877,PAYLOAD,2022-12-16 00:28:02,15.08839358,0.0002236,53.2165,94.8715,38.12300000000001,321.992,7.6189e-05,9.24e-06,0.0,0 STARLINK-3877,1 52355U 22045AA  22350.01947469  .00000924  00000-0  76189-4 0  9995,2 52355  53.2165  94.8715 0002236  38.1230 321.9920 15.08839358 37699,6917.882,95.438,541.294,538.201,0.0
52355.0,STARLINK-3877,PAYLOAD,2022-12-16 13:11:07,15.08845017,0.0002203,53.2171,92.4929,36.0122,324.1018,7.1354e-05,8.48e-06,0.0,0 STARLINK-3877,1 52355U 22045AA  22350.54939098  .00000848  00000-0  71354-4 0  9996,2 52355  53.2171  92.4929 0002203  36.0122 324.1018 15.08845017 37779,6917.865,95.437,541.254,538.206,0.0
52355.0,STARLINK-3877,PAYLOAD,2022-12-16 19:32:39,15.08844345,0.0001904,53.217,91.3039,40.8661,319.2474,3.0851999999999995e-05,2.03e-06,0.0,0 STARLINK-3877,1 52355U 22045AA  22350.81435137  .00000203  00000-0  30852-4 0  9994,2 52355  53.2170  91.3039 0001904  40.8661 319.2474 15.08844345 37815,6917.8669999999975,95.437,541.049,538.415,0.0
52355.0,STARLINK-3877,PAYLOAD,2022-12-17 00:18:50,15.08832222,0.0002599,53.2163,90.4122,43.4124,316.7072,-3.5e-05,-8.45e-06,0.0,0 STARLINK-3877,1 52355U 22045AA  22351.01308357 -.00000845  00000-0 -35000-4 0  9994,2 52355  53.2163  90.4122 0002599  43.4124 316.7072 15.08832222 37844,6917.904,95.438,541.567,537.971,0.0
52355.0,STARLINK-3877,PAYLOAD,2022-12-17 13:01:55,15.0883375,0.0002284,53.2176,88.0334,34.8487,325.2654,-0.00011148,-2.062e-05,0.0,0 STARLINK-3877,1 52355U 22045AA  22351.54300618 -.00002062  00000-0 -11148-3 0  9993,2 52355  53.2176  88.0334 0002284  34.8487 325.2654 15.08833750 37920,6917.899,95.438,541.345,538.184,0.0
52355.0,STARLINK-3877,PAYLOAD,2022-12-17 17:48:04,15.0884034,0.0002257,53.2171,87.1408,39.7899,320.3259,-3.8174e-05,-8.96e-06,0.0,0 STARLINK-3877,1 52355U 22045AA  22351.74171971 -.00000896  00000-0 -38174-4 0  9995,2 52355  53.2171  87.1408 0002257  39.7899 320.3259 15.08840340 37951,6917.879,95.438,541.306,538.183,0.0
52355.0,STARLINK-3877,PAYLOAD,2022-12-18 12:52:42,15.08841842,0.0002235,53.2175,83.5721,35.4409,324.6731,-6.9432000000000016e-06,-3.99e-06,0.0,0 STARLINK-3877,1 52355U 22045AA  22352.53659816 -.00000399  00000-0 -69432-5 0  9992,2 52355  53.2175  83.5721 0002235  35.4409 324.6731 15.08841842 38073,6917.875,95.437,541.286,538.194,0.0
52355.0,STARLINK-3877,PAYLOAD,2022-12-18 17:38:51,15.08844765,0.0002276,53.2174,82.6802,35.2935,324.8207,3.0818e-05,2.02e-06,0.0,0 STARLINK-3877,1 52355U 22045AA  22352.73531493  .00000202  00000-0  30818-4 0  9990,2 52355  53.2174  82.6802 0002276  35.2935 324.8207 15.08844765 38100,6917.866,95.437,541.305,538.156,0.0
52355.0,STARLINK-3877,PAYLOAD,2022-12-19 09:32:43,15.08825915,0.0002178,53.2161,79.7071,39.1167,320.9982,3.9949e-05,3.47e-06,0.0,0 STARLINK-3877,1 52355U 22045AA  22353.39773052  .00000347  00000-0  39949-4 0  9996,2 52355  53.2161  79.7071 0002178  39.1167 320.9982 15.08825915 38206,6917.9230000000025,95.438,541.295,538.2819999999998,0.0
52355.0,STARLINK-3877,PAYLOAD,2022-12-20 12:34:17,15.08836399,0.0002445,53.2174,74.655,37.0428,323.0733,8.5479e-05,1.072e-05,0.0,0 STARLINK-3877,1 52355U 22045AA  22354.52380936  .00001072  00000-0  85479-4 0  9992,2 52355  53.2174  74.6550 0002445  37.0428 323.0733 15.08836399 38374,6917.891,95.438,541.448,538.065,0.0
52355.0,STARLINK-3877,PAYLOAD,2022-12-20 15:45:02,15.08845875,0.000229,53.2171,74.0585,37.1626,322.9524,4.2872e-05,3.94e-06,0.0,0 STARLINK-3877,1 52355U 22045AA  22354.65628346  .00000394  00000-0  42872-4 0  9992,2 52355  53.2171  74.0585 0002290  37.1626 322.9524 15.08845875 38399,6917.861999999999,95.437,541.312,538.143,0.0
52355.0,STARLINK-3877,PAYLOAD,2022-12-21 06:03:33,15.08819357,0.0001992,53.2154,71.3801,42.1021,318.0124,-4.8479e-06,-3.65e-06,0.0,0 STARLINK-3877,1 52355U 22045AA  22355.25246615 -.00000365  00000-0 -48479-5 0  9994,2 52355  53.2154  71.3801 0001992  42.1021 318.0124 15.08819357 38482,6917.943,95.439,541.187,538.43,0.0
52355.0,STARLINK-3877,PAYLOAD,2022-12-21 10:49:42,15.08825712,0.0002022,53.2159,70.4879,41.2852,318.8292,-2.1408e-05,-6.29e-06,0.0,0 STARLINK-3877,1 52355U 22045AA  22355.45118491 -.00000629  00000-0 -21408-4 0  9991,2 52355  53.2159  70.4879 0002022  41.2852 318.8292 15.08825712 38519,6917.924,95.438,541.188,538.39,0.0
52355.0,STARLINK-3877,PAYLOAD,2022-12-22 09:05:05,15.08843666,0.0002008,53.2163,66.3253,44.1448,315.9704,0.00013674,1.889e-05,0.0,0 STARLINK-3877,1 52355U 22045AA  22356.37853097  .00001889  00000-0  13674-3 0  9993,2 52355  53.2163  66.3253 0002008  44.1448 315.9704 15.08843666 38650,6917.869000000002,95.437,541.123,538.345,0.0
52355.0,STARLINK-3877,PAYLOAD,2022-12-22 13:51:15,15.08840523,0.0002287,53.2174,65.4364,43.3703,316.7469,2.979e-05,1.86e-06,0.0,0 STARLINK-3877,1 52355U 22045AA  22356.57725740  .00000186  00000-0  29790-4 0  9994,2 52355  53.2174  65.4364 0002287  43.3703 316.7469 15.08840523 38688,6917.879,95.438,541.326,538.1619999999998,0.0
52355.0,STARLINK-3877,PAYLOAD,2022-12-23 10:31:15,15.08838784,0.0001891,53.2168,61.5669,50.1868,309.9291,0.00011668,1.569e-05,0.0,0 STARLINK-3877,1 52355U 22045AA  22357.43837551  .00001569  00000-0  11668-3 0  9994,2 52355  53.2168  61.5669 0001891  50.1868 309.9291 15.08838784 38812,6917.884,95.438,541.057,538.441,0.0
52355.0,STARLINK-3877,PAYLOAD,2022-12-23 13:42:01,15.08839452,0.0001921,53.2168,60.9723,50.137,309.9791,0.00011908,1.608e-05,0.0,0 STARLINK-3877,1 52355U 22045AA  22357.57085498  .00001608  00000-0  11908-3 0  9995,2 52355  53.2168  60.9723 0001921  50.1370 309.9791 15.08839452 38838,6917.882,95.438,541.076,538.418,0.0
52355.0,STARLINK-3877,PAYLOAD,2022-12-24 04:00:28,15.08861183,0.0001802,53.217,58.2956,45.361,314.7529,4.8802e-06,-2.1e-06,0.0,0 STARLINK-3877,1 52355U 22045AA  22358.16700228 -.00000210  00000-0  48802-5 0  9990,2 52355  53.2170  58.2956 0001802  45.3610 314.7529 15.08861183 38929,6917.816,95.436,540.927,538.434,0.0
52355.0,STARLINK-3877,PAYLOAD,2022-12-24 10:22:01,15.08858403,0.0001774999999999,53.2172,57.1056,52.5266,307.5887,-2.7439e-05,-7.25e-06,0.0,0 STARLINK-3877,1 52355U 22045AA  22358.43196201 -.00000725  00000-0 -27439-4 0  9994,2 52355  53.2172  57.1056 0001775  52.5266 307.5887 15.08858403 38968,6917.824000000001,95.436,540.9169999999998,538.461,0.0
52355.0,STARLINK-3877,PAYLOAD,2022-12-24 13:32:47,15.08856753,0.0001382,53.2184,56.5097,67.935,292.1788,-8.722e-05,-1.676e-05,0.0,0 STARLINK-3877,1 52355U 22045AA  22358.56444221 -.00001676  00000-0 -87220-4 0  9996,2 52355  53.2184  56.5097 0001382  67.9350 292.1788 15.08856753 38984,6917.829000000002,95.436,540.65,538.738,0.0
52355.0,STARLINK-3877,PAYLOAD,2022-12-24 21:29:44,15.08841277,0.0002058,53.2181,55.0236,46.8561,313.2603,3.8254e-05,3.21e-06,0.0,0 STARLINK-3877,1 52355U 22045AA  22358.89564861  .00000321  00000-0  38254-4 0  9992,2 52355  53.2181  55.0236 0002058  46.8561 313.2603 15.08841277 39034,6917.876,95.437,541.165,538.318,0.0
